[{"OBJECT_NAME":"STARLINK-2140","OBJECT_ID":"2021-017J","EPOCH":"2025-10-03T02:06:21.447072","MEAN_MOTION":15.06405109,"ECCENTRICITY":0.00014315,"INCLINATION":53.0534,"RA_OF_ASC_NODE":204.1322,"ARG_OF_PERICENTER":86.8191,"MEAN_ANOMALY":273.2962,"EPHEMERIS_TYPE":0,"CLASSIFICATION_TYPE":"U","NORAD_CAT_ID":47730,"ELEMENT_SET_NO":999,"REV_AT_EPOCH":25390,"BSTAR":0.0015330194,"MEAN_MOTION_DOT":0.0002263,"MEAN_MOTION_DDOT":0},{"OBJECT_NAME":"STARLINK-2141","OBJECT_ID":"2021-017K","EPOCH":"2025-10-03T00:39:26.040672","MEAN_MOTION":15.06372202,"ECCENTRICITY":0.00015947,"INCLINATION":53.0532,"RA_OF_ASC_NODE":199.3952,"ARG_OF_PERICENTER":92.3168,"MEAN_ANOMALY":267.8004,"EPHEMERIS_TYPE":0,"CLASSIFICATION_TYPE":"U","NORAD_CAT_ID":47731,"ELEMENT_SET_NO":999,"REV_AT_EPOCH":25397,"BSTAR":0.0010590858,"MEAN_MOTION_DOT":0.00015517,"MEAN_MOTION_DDOT":0},{"OBJECT_NAME":"STARLINK-2143","OBJECT_ID":"2021-017M","EPOCH":"2025-10-03T01:57:44.038080","MEAN_MOTION":15.06384207,"ECCENTRICITY":0.00017307,"INCLINATION":53.0543,"RA_OF_ASC_NODE":209.1448,"ARG_OF_PERICENTER":84.1902,"MEAN_ANOMALY":275.9284,"EPHEMERIS_TYPE":0,"CLASSIFICATION_TYPE":"U","NORAD_CAT_ID":47733,"ELEMENT_SET_NO":999,"REV_AT_EPOCH":25388,"BSTAR":0.00024634567,"MEAN_MOTION_DOT":3.388e-5,"MEAN_MOTION_DDOT":0},{"OBJECT_NAME":"STARLINK-2144","OBJECT_ID":"2021-017N","EPOCH":"2025-10-03T04:01:07.466592","MEAN_MOTION":15.06393043,"ECCENTRICITY":0.00016327,"INCLINATION":53.0529,"RA_OF_ASC_NODE":198.762,"ARG_OF_PERICENTER":100.9638,"MEAN_ANOMALY":259.1535,"EPHEMERIS_TYPE":0,"CLASSIFICATION_TYPE":"U","NORAD_CAT_ID":47734,"ELEMENT_SET_NO":999,"REV_AT_EPOCH":25400,"BSTAR":0.0020232082,"MEAN_MOTION_DOT":0.00029977,"MEAN_MOTION_DDOT":0},{"OBJECT_NAME":"STARLINK-2147","OBJECT_ID":"2021-017Q","EPOCH":"2025-10-03T03:14:41.778528","MEAN_MOTION":15.0638028,"ECCENTRICITY":0.00011361,"INCLINATION":53.0529,"RA_OF_ASC_NODE":188.9096,"ARG_OF_PERICENTER":109.5392,"MEAN_ANOMALY":250.5719,"EPHEMERIS_TYPE":0,"CLASSIFICATION_TYPE":"U","NORAD_CAT_ID":47736,"ELEMENT_SET_NO":999,"REV_AT_EPOCH":25417,"BSTAR":0.0018641848,"MEAN_MOTION_DOT":0.0002758,"MEAN_MOTION_DDOT":0},{"OBJECT_NAME":"STARLINK-2150","OBJECT_ID":"2021-017T","EPOCH":"2025-10-03T04:44:14.061408","MEAN_MOTION":15.06433039,"ECCENTRICITY":0.00013581,"INCLINATION":53.0515,"RA_OF_ASC_NODE":213.6292,"ARG_OF_PERICENTER":85.8491,"MEAN_ANOMALY":274.2653,"EPHEMERIS_TYPE":0,"CLASSIFICATION_TYPE":"U","NORAD_CAT_ID":47739,"ELEMENT_SET_NO":999,"REV_AT_EPOCH":25383,"BSTAR":0.0014939794,"MEAN_MOTION_DOT":0.00022061,"MEAN_MOTION_DDOT":0},{"OBJECT_NAME":"STARLINK-2156","OBJECT_ID":"2021-017W","EPOCH":"2025-10-03T06:31:05.219616","MEAN_MOTION":15.06395432,"ECCENTRICITY":0.00010876,"INCLINATION":53.0528,"RA_OF_ASC_NODE":188.2991,"ARG_OF_PERICENTER":103.9288,"MEAN_ANOMALY":256.1822,"EPHEMERIS_TYPE":0,"CLASSIFICATION_TYPE":"U","NORAD_CAT_ID":47742,"ELEMENT_SET_NO":999,"REV_AT_EPOCH":25419,"BSTAR":0.0016074052,"MEAN_MOTION_DOT":0.00023739,"MEAN_MOTION_DDOT":0},{"OBJECT_NAME":"STARLINK-2159","OBJECT_ID":"2021-017Z","EPOCH":"2025-10-03T04:06:26.372448","MEAN_MOTION":15.06388781,"ECCENTRICITY":0.00015468,"INCLINATION":53.0526,"RA_OF_ASC_NODE":198.7499,"ARG_OF_PERICENTER":77.5076,"MEAN_ANOMALY":282.6086,"EPHEMERIS_TYPE":0,"CLASSIFICATION_TYPE":"U","NORAD_CAT_ID":47745,"ELEMENT_SET_NO":999,"REV_AT_EPOCH":25398,"BSTAR":0.0022209462,"MEAN_MOTION_DOT":0.00032945,"MEAN_MOTION_DDOT":0},{"OBJECT_NAME":"STARLINK-2160","OBJECT_ID":"2021-017AA","EPOCH":"2025-10-03T05:31:21.897984","MEAN_MOTION":15.0638818,"ECCENTRICITY":0.00013515,"INCLINATION":53.0532,"RA_OF_ASC_NODE":198.4841,"ARG_OF_PERICENTER":93.1271,"MEAN_ANOMALY":266.9872,"EPHEMERIS_TYPE":0,"CLASSIFICATION_TYPE":"U","NORAD_CAT_ID":47746,"ELEMENT_SET_NO":999,"REV_AT_EPOCH":25398,"BSTAR":0.0018615514,"MEAN_MOTION_DOT":0.00027546,"MEAN_MOTION_DDOT":0},{"OBJECT_NAME":"STARLINK-2161","OBJECT_ID":"2021-017AB","EPOCH":"2025-10-03T03:51:51.738336","MEAN_MOTION":15.06381098,"ECCENTRICITY":0.00011928,"INCLINATION":53.0524,"RA_OF_ASC_NODE":188.7934,"ARG_OF_PERICENTER":91.161,"MEAN_ANOMALY":268.9516,"EPHEMERIS_TYPE":0,"CLASSIFICATION_TYPE":"U","NORAD_CAT_ID":47747,"ELEMENT_SET_NO":999,"REV_AT_EPOCH":25415,"BSTAR":0.0025317288,"MEAN_MOTION_DOT":0.00037611,"MEAN_MOTION_DDOT":0},{"OBJECT_NAME":"STARLINK-2162","OBJECT_ID":"2021-017AC","EPOCH":"2025-10-03T03:41:14.516736","MEAN_MOTION":15.06385861,"ECCENTRICITY":0.00014328,"INCLINATION":53.0537,"RA_OF_ASC_NODE":188.825,"ARG_OF_PERICENTER":97.4891,"MEAN_ANOMALY":262.626,"EPHEMERIS_TYPE":0,"CLASSIFICATION_TYPE":"U","NORAD_CAT_ID":47748,"ELEMENT_SET_NO":999,"REV_AT_EPOCH":25412,"BSTAR":0.0009399829,"MEAN_MOTION_DOT":0.00013742,"MEAN_MOTION_DDOT":0},{"OBJECT_NAME":"STARLINK-2163","OBJECT_ID":"2021-017AD","EPOCH":"2025-10-03T04:02:28.152960","MEAN_MOTION":15.06380286,"ECCENTRICITY":0.00013295,"INCLINATION":53.052,"RA_OF_ASC_NODE":188.7605,"ARG_OF_PERICENTER":83.4636,"MEAN_ANOMALY":276.6504,"EPHEMERIS_TYPE":0,"CLASSIFICATION_TYPE":"U","NORAD_CAT_ID":47749,"ELEMENT_SET_NO":999,"REV_AT_EPOCH":25412,"BSTAR":-4.0299085e-5,"MEAN_MOTION_DOT":-8.81e-6,"MEAN_MOTION_DDOT":0},{"OBJECT_NAME":"STARLINK-2164","OBJECT_ID":"2021-017AE","EPOCH":"2025-10-03T03:30:37.301184","MEAN_MOTION":15.06392927,"ECCENTRICITY":0.00012046,"INCLINATION":53.0528,"RA_OF_ASC_NODE":188.8589,"ARG_OF_PERICENTER":116.6913,"MEAN_ANOMALY":243.4199,"EPHEMERIS_TYPE":0,"CLASSIFICATION_TYPE":"U","NORAD_CAT_ID":47750,"ELEMENT_SET_NO":999,"REV_AT_EPOCH":25412,"BSTAR":0.00073861457,"MEAN_MOTION_DOT":0.00010735,"MEAN_MOTION_DDOT":0},{"OBJECT_NAME":"STARLINK-2169","OBJECT_ID":"2021-017AG","EPOCH":"2025-10-03T05:02:51.072576","MEAN_MOTION":15.06382071,"ECCENTRICITY":0.00012529,"INCLINATION":53.0535,"RA_OF_ASC_NODE":193.5714,"ARG_OF_PERICENTER":99.3618,"MEAN_ANOMALY":260.7512,"EPHEMERIS_TYPE":0,"CLASSIFICATION_TYPE":"U","NORAD_CAT_ID":47752,"ELEMENT_SET_NO":999,"REV_AT_EPOCH":25411,"BSTAR":0.0022420625,"MEAN_MOTION_DOT":0.00033256,"MEAN_MOTION_DDOT":0},{"OBJECT_NAME":"STARLINK-2170","OBJECT_ID":"2021-017AH","EPOCH":"2025-10-03T01:16:35.429376","MEAN_MOTION":15.06387138,"ECCENTRICITY":0.00015278,"INCLINATION":53.0521,"RA_OF_ASC_NODE":199.2774,"ARG_OF_PERICENTER":95.2515,"MEAN_ANOMALY":264.8649,"EPHEMERIS_TYPE":0,"CLASSIFICATION_TYPE":"U","NORAD_CAT_ID":47753,"ELEMENT_SET_NO":999,"REV_AT_EPOCH":25401,"BSTAR":0.0012528878,"MEAN_MOTION_DOT":0.00018423,"MEAN_MOTION_DDOT":0},{"OBJECT_NAME":"STARLINK-2171","OBJECT_ID":"2021-017AJ","EPOCH":"2025-10-03T00:34:07.287744","MEAN_MOTION":15.06372484,"ECCENTRICITY":0.00011991,"INCLINATION":53.0532,"RA_OF_ASC_NODE":199.4112,"ARG_OF_PERICENTER":104.6059,"MEAN_ANOMALY":255.5063,"EPHEMERIS_TYPE":0,"CLASSIFICATION_TYPE":"U","NORAD_CAT_ID":47754,"ELEMENT_SET_NO":999,"REV_AT_EPOCH":25397,"BSTAR":0.00096875569,"MEAN_MOTION_DOT":0.00014167,"MEAN_MOTION_DDOT":0},{"OBJECT_NAME":"STARLINK-2178","OBJECT_ID":"2021-017AQ","EPOCH":"2025-10-03T07:16:11.409312","MEAN_MOTION":15.06391946,"ECCENTRICITY":0.00016917,"INCLINATION":53.0528,"RA_OF_ASC_NODE":208.1562,"ARG_OF_PERICENTER":74.5137,"MEAN_ANOMALY":285.6039,"EPHEMERIS_TYPE":0,"CLASSIFICATION_TYPE":"U","NORAD_CAT_ID":47760,"ELEMENT_SET_NO":999,"REV_AT_EPOCH":25389,"BSTAR":0.00064866686,"MEAN_MOTION_DOT":9.391e-5,"MEAN_MOTION_DDOT":0},{"OBJECT_NAME":"STARLINK-2180","OBJECT_ID":"2021-017AS","EPOCH":"2025-10-03T02:15:38.388384","MEAN_MOTION":15.06400491,"ECCENTRICITY":0.00013522,"INCLINATION":53.0542,"RA_OF_ASC_NODE":214.1026,"ARG_OF_PERICENTER":92.9126,"MEAN_ANOMALY":267.2018,"EPHEMERIS_TYPE":0,"CLASSIFICATION_TYPE":"U","NORAD_CAT_ID":47762,"ELEMENT_SET_NO":999,"REV_AT_EPOCH":25378,"BSTAR":0.00053608309,"MEAN_MOTION_DOT":7.713e-5,"MEAN_MOTION_DDOT":0},{"OBJECT_NAME":"STARLINK-2185","OBJECT_ID":"2021-017AX","EPOCH":"2025-10-03T06:08:31.541568","MEAN_MOTION":15.06391284,"ECCENTRICITY":0.00016278,"INCLINATION":53.0523,"RA_OF_ASC_NODE":198.3667,"ARG_OF_PERICENTER":59.611,"MEAN_ANOMALY":300.5039,"EPHEMERIS_TYPE":0,"CLASSIFICATION_TYPE":"U","NORAD_CAT_ID":47767,"ELEMENT_SET_NO":999,"REV_AT_EPOCH":25405,"BSTAR":0.0017046339,"MEAN_MOTION_DOT":0.00025194,"MEAN_MOTION_DDOT":0},{"OBJECT_NAME":"STARLINK-2193","OBJECT_ID":"2021-017BA","EPOCH":"2025-10-03T04:20:23.718912","MEAN_MOTION":15.06384388,"ECCENTRICITY":0.00016119,"INCLINATION":53.0532,"RA_OF_ASC_NODE":193.7027,"ARG_OF_PERICENTER":104.8102,"MEAN_ANOMALY":255.3065,"EPHEMERIS_TYPE":0,"CLASSIFICATION_TYPE":"U","NORAD_CAT_ID":47770,"ELEMENT_SET_NO":999,"REV_AT_EPOCH":25408,"BSTAR":0.00051238625,"MEAN_MOTION_DOT":7.355e-5,"MEAN_MOTION_DDOT":0},{"OBJECT_NAME":"STARLINK-2194","OBJECT_ID":"2021-017BB","EPOCH":"2025-10-03T06:11:50.645184","MEAN_MOTION":15.06385773,"ECCENTRICITY":0.00013298,"INCLINATION":53.0532,"RA_OF_ASC_NODE":193.3544,"ARG_OF_PERICENTER":74.4368,"MEAN_ANOMALY":285.6768,"EPHEMERIS_TYPE":0,"CLASSIFICATION_TYPE":"U","NORAD_CAT_ID":47771,"ELEMENT_SET_NO":999,"REV_AT_EPOCH":25410,"BSTAR":0.0013972026,"MEAN_MOTION_DOT":0.00020583,"MEAN_MOTION_DDOT":0},{"OBJECT_NAME":"STARLINK-2195","OBJECT_ID":"2021-017BC","EPOCH":"2025-10-03T05:56:34.218528","MEAN_MOTION":15.06398076,"ECCENTRICITY":0.00015815,"INCLINATION":53.0535,"RA_OF_ASC_NODE":208.4077,"ARG_OF_PERICENTER":93.4845,"MEAN_ANOMALY":266.6325,"EPHEMERIS_TYPE":0,"CLASSIFICATION_TYPE":"U","NORAD_CAT_ID":47772,"ELEMENT_SET_NO":999,"REV_AT_EPOCH":25386,"BSTAR":0.0015269387,"MEAN_MOTION_DOT":0.00022534,"MEAN_MOTION_DDOT":0},{"OBJECT_NAME":"STARLINK-2196","OBJECT_ID":"2021-017BD","EPOCH":"2025-10-03T01:04:37.582752","MEAN_MOTION":15.06420234,"ECCENTRICITY":0.00029702,"INCLINATION":53.0544,"RA_OF_ASC_NODE":209.3142,"ARG_OF_PERICENTER":136.4687,"MEAN_ANOMALY":223.6537,"EPHEMERIS_TYPE":0,"CLASSIFICATION_TYPE":"U","NORAD_CAT_ID":47773,"ELEMENT_SET_NO":999,"REV_AT_EPOCH":25382,"BSTAR":0.00028209791,"MEAN_MOTION_DOT":3.925e-5,"MEAN_MOTION_DDOT":0}]
